<?xml version="1.0" encoding="UTF-8"?>
<ndm xmlns:xsi="http://www.w3.org/2001/XMLSchema-instance" xsi:noNamespaceSchemaLocation="https://sanaregistry.org/r/ndmxml_unqualified/ndmxml-2.0.0-master-2.0.xsd">
<omm id="CCSDS_OMM_VERS" version="2.0">
<header><CREATION_DATE/><ORIGINATOR/></header><body><segment><metadata><OBJECT_NAME>ORBCOMM FM06</OBJECT_NAME><OBJECT_ID>1997-084G</OBJECT_ID><CENTER_NAME>EARTH</CENTER_NAME><REF_FRAME>TEME</REF_FRAME><TIME_SYSTEM>UTC</TIME_SYSTEM><MEAN_ELEMENT_THEORY>SGP4</MEAN_ELEMENT_THEORY></metadata><data><meanElements><EPOCH>2025-02-17T20:00:03.024576</EPOCH><MEAN_MOTION>14.45363998</MEAN_MOTION><ECCENTRICITY>.0000483</ECCENTRICITY><INCLINATION>45.0123</INCLINATION><RA_OF_ASC_NODE>220.7276</RA_OF_ASC_NODE><ARG_OF_PERICENTER>218.6404</ARG_OF_PERICENTER><MEAN_ANOMALY>282.9753</MEAN_ANOMALY></meanElements><tleParameters><EPHEMERIS_TYPE>0</EPHEMERIS_TYPE><CLASSIFICATION_TYPE>U</CLASSIFICATION_TYPE><NORAD_CAT_ID>25118</NORAD_CAT_ID><ELEMENT_SET_NO>999</ELEMENT_SET_NO><REV_AT_EPOCH>42425</REV_AT_EPOCH><BSTAR>.11858E-2</BSTAR><MEAN_MOTION_DOT>.4067E-4</MEAN_MOTION_DOT><MEAN_MOTION_DDOT>0</MEAN_MOTION_DDOT></tleParameters></data></segment></body></omm>
<omm id="CCSDS_OMM_VERS" version="2.0">
<header><CREATION_DATE/><ORIGINATOR/></header><body><segment><metadata><OBJECT_NAME>ORBCOMM FM07</OBJECT_NAME><OBJECT_ID>1997-084H</OBJECT_ID><CENTER_NAME>EARTH</CENTER_NAME><REF_FRAME>TEME</REF_FRAME><TIME_SYSTEM>UTC</TIME_SYSTEM><MEAN_ELEMENT_THEORY>SGP4</MEAN_ELEMENT_THEORY></metadata><data><meanElements><EPOCH>2025-02-17T21:16:57.571680</EPOCH><MEAN_MOTION>14.45298353</MEAN_MOTION><ECCENTRICITY>.0001733</ECCENTRICITY><INCLINATION>45.0120</INCLINATION><RA_OF_ASC_NODE>221.2227</RA_OF_ASC_NODE><ARG_OF_PERICENTER>302.3126</ARG_OF_PERICENTER><MEAN_ANOMALY>57.7557</MEAN_ANOMALY></meanElements><tleParameters><EPHEMERIS_TYPE>0</EPHEMERIS_TYPE><CLASSIFICATION_TYPE>U</CLASSIFICATION_TYPE><NORAD_CAT_ID>25119</NORAD_CAT_ID><ELEMENT_SET_NO>999</ELEMENT_SET_NO><REV_AT_EPOCH>42425</REV_AT_EPOCH><BSTAR>.11991E-2</BSTAR><MEAN_MOTION_DOT>.4108E-4</MEAN_MOTION_DOT><MEAN_MOTION_DDOT>0</MEAN_MOTION_DDOT></tleParameters></data></segment></body></omm>
<omm id="CCSDS_OMM_VERS" version="2.0">
<header><CREATION_DATE/><ORIGINATOR/></header><body><segment><metadata><OBJECT_NAME>ORBCOMM FM03</OBJECT_NAME><OBJECT_ID>1998-007B</OBJECT_ID><CENTER_NAME>EARTH</CENTER_NAME><REF_FRAME>TEME</REF_FRAME><TIME_SYSTEM>UTC</TIME_SYSTEM><MEAN_ELEMENT_THEORY>SGP4</MEAN_ELEMENT_THEORY></metadata><data><meanElements><EPOCH>2025-02-17T12:19:47.908416</EPOCH><MEAN_MOTION>14.34014270</MEAN_MOTION><ECCENTRICITY>.0043501</ECCENTRICITY><INCLINATION>107.9703</INCLINATION><RA_OF_ASC_NODE>249.8361</RA_OF_ASC_NODE><ARG_OF_PERICENTER>98.7099</ARG_OF_PERICENTER><MEAN_ANOMALY>261.8971</MEAN_ANOMALY></meanElements><tleParameters><EPHEMERIS_TYPE>0</EPHEMERIS_TYPE><CLASSIFICATION_TYPE>U</CLASSIFICATION_TYPE><NORAD_CAT_ID>25158</NORAD_CAT_ID><ELEMENT_SET_NO>999</ELEMENT_SET_NO><REV_AT_EPOCH>40688</REV_AT_EPOCH><BSTAR>.97244E-3</BSTAR><MEAN_MOTION_DOT>.2619E-4</MEAN_MOTION_DOT><MEAN_MOTION_DDOT>0</MEAN_MOTION_DDOT></tleParameters></data></segment></body></omm>
<omm id="CCSDS_OMM_VERS" version="2.0">
<header><CREATION_DATE/><ORIGINATOR/></header><body><segment><metadata><OBJECT_NAME>ORBCOMM FM04</OBJECT_NAME><OBJECT_ID>1998-007C</OBJECT_ID><CENTER_NAME>EARTH</CENTER_NAME><REF_FRAME>TEME</REF_FRAME><TIME_SYSTEM>UTC</TIME_SYSTEM><MEAN_ELEMENT_THEORY>SGP4</MEAN_ELEMENT_THEORY></metadata><data><meanElements><EPOCH>2025-02-17T14:08:04.429824</EPOCH><MEAN_MOTION>14.34276724</MEAN_MOTION><ECCENTRICITY>.00392</ECCENTRICITY><INCLINATION>107.9689</INCLINATION><RA_OF_ASC_NODE>253.1306</RA_OF_ASC_NODE><ARG_OF_PERICENTER>95.8890</ARG_OF_PERICENTER><MEAN_ANOMALY>264.6719</MEAN_ANOMALY></meanElements><tleParameters><EPHEMERIS_TYPE>0</EPHEMERIS_TYPE><CLASSIFICATION_TYPE>U</CLASSIFICATION_TYPE><NORAD_CAT_ID>25159</NORAD_CAT_ID><ELEMENT_SET_NO>999</ELEMENT_SET_NO><REV_AT_EPOCH>40707</REV_AT_EPOCH><BSTAR>.81288E-3</BSTAR><MEAN_MOTION_DOT>.2174E-4</MEAN_MOTION_DOT><MEAN_MOTION_DDOT>0</MEAN_MOTION_DDOT></tleParameters></data></segment></body></omm>
<omm id="CCSDS_OMM_VERS" version="2.0">
<header><CREATION_DATE/><ORIGINATOR/></header><body><segment><metadata><OBJECT_NAME>ORBCOMM FM17</OBJECT_NAME><OBJECT_ID>1998-046A</OBJECT_ID><CENTER_NAME>EARTH</CENTER_NAME><REF_FRAME>TEME</REF_FRAME><TIME_SYSTEM>UTC</TIME_SYSTEM><MEAN_ELEMENT_THEORY>SGP4</MEAN_ELEMENT_THEORY></metadata><data><meanElements><EPOCH>2025-02-17T20:33:51.260256</EPOCH><MEAN_MOTION>14.34670652</MEAN_MOTION><ECCENTRICITY>.0003869</ECCENTRICITY><INCLINATION>44.9932</INCLINATION><RA_OF_ASC_NODE>100.6332</RA_OF_ASC_NODE><ARG_OF_PERICENTER>296.8595</ARG_OF_PERICENTER><MEAN_ANOMALY>63.1856</MEAN_ANOMALY></meanElements><tleParameters><EPHEMERIS_TYPE>0</EPHEMERIS_TYPE><CLASSIFICATION_TYPE>U</CLASSIFICATION_TYPE><NORAD_CAT_ID>25413</NORAD_CAT_ID><ELEMENT_SET_NO>999</ELEMENT_SET_NO><REV_AT_EPOCH>38603</REV_AT_EPOCH><BSTAR>.76633E-3</BSTAR><MEAN_MOTION_DOT>.2047E-4</MEAN_MOTION_DOT><MEAN_MOTION_DDOT>0</MEAN_MOTION_DDOT></tleParameters></data></segment></body></omm>
<omm id="CCSDS_OMM_VERS" version="2.0">
<header><CREATION_DATE/><ORIGINATOR/></header><body><segment><metadata><OBJECT_NAME>ORBCOMM FM18</OBJECT_NAME><OBJECT_ID>1998-046B</OBJECT_ID><CENTER_NAME>EARTH</CENTER_NAME><REF_FRAME>TEME</REF_FRAME><TIME_SYSTEM>UTC</TIME_SYSTEM><MEAN_ELEMENT_THEORY>SGP4</MEAN_ELEMENT_THEORY></metadata><data><meanElements><EPOCH>2025-02-17T22:50:45.962304</EPOCH><MEAN_MOTION>14.37957429</MEAN_MOTION><ECCENTRICITY>.0005032</ECCENTRICITY><INCLINATION>44.9939</INCLINATION><RA_OF_ASC_NODE>20.7032</RA_OF_ASC_NODE><ARG_OF_PERICENTER>15.1711</ARG_OF_PERICENTER><MEAN_ANOMALY>344.9287</MEAN_ANOMALY></meanElements><tleParameters><EPHEMERIS_TYPE>0</EPHEMERIS_TYPE><CLASSIFICATION_TYPE>U</CLASSIFICATION_TYPE><NORAD_CAT_ID>25414</NORAD_CAT_ID><ELEMENT_SET_NO>999</ELEMENT_SET_NO><REV_AT_EPOCH>38708</REV_AT_EPOCH><BSTAR>.11893E-2</BSTAR><MEAN_MOTION_DOT>.3487E-4</MEAN_MOTION_DOT><MEAN_MOTION_DDOT>0</MEAN_MOTION_DDOT></tleParameters></data></segment></body></omm>
<omm id="CCSDS_OMM_VERS" version="2.0">
<header><CREATION_DATE/><ORIGINATOR/></header><body><segment><metadata><OBJECT_NAME>ORBCOMM FM19</OBJECT_NAME><OBJECT_ID>1998-046C</OBJECT_ID><CENTER_NAME>EARTH</CENTER_NAME><REF_FRAME>TEME</REF_FRAME><TIME_SYSTEM>UTC</TIME_SYSTEM><MEAN_ELEMENT_THEORY>SGP4</MEAN_ELEMENT_THEORY></metadata><data><meanElements><EPOCH>2025-02-17T23:01:35.401728</EPOCH><MEAN_MOTION>14.37768966</MEAN_MOTION><ECCENTRICITY>.0004177</ECCENTRICITY><INCLINATION>44.9949</INCLINATION><RA_OF_ASC_NODE>22.4790</RA_OF_ASC_NODE><ARG_OF_PERICENTER>1.9592</ARG_OF_PERICENTER><MEAN_ANOMALY>35.6466</MEAN_ANOMALY></meanElements><tleParameters><EPHEMERIS_TYPE>0</EPHEMERIS_TYPE><CLASSIFICATION_TYPE>U</CLASSIFICATION_TYPE><NORAD_CAT_ID>25415</NORAD_CAT_ID><ELEMENT_SET_NO>999</ELEMENT_SET_NO><REV_AT_EPOCH>38704</REV_AT_EPOCH><BSTAR>.11682E-2</BSTAR><MEAN_MOTION_DOT>.3409E-4</MEAN_MOTION_DOT><MEAN_MOTION_DDOT>0</MEAN_MOTION_DDOT></tleParameters></data></segment></body></omm>
<omm id="CCSDS_OMM_VERS" version="2.0">
<header><CREATION_DATE/><ORIGINATOR/></header><body><segment><metadata><OBJECT_NAME>ORBCOMM FM20</OBJECT_NAME><OBJECT_ID>1998-046D</OBJECT_ID><CENTER_NAME>EARTH</CENTER_NAME><REF_FRAME>TEME</REF_FRAME><TIME_SYSTEM>UTC</TIME_SYSTEM><MEAN_ELEMENT_THEORY>SGP4</MEAN_ELEMENT_THEORY></metadata><data><meanElements><EPOCH>2025-02-17T23:03:27.982656</EPOCH><MEAN_MOTION>14.36765828</MEAN_MOTION><ECCENTRICITY>.0002165</ECCENTRICITY><INCLINATION>44.9949</INCLINATION><RA_OF_ASC_NODE>25.7367</RA_OF_ASC_NODE><ARG_OF_PERICENTER>321.0651</ARG_OF_PERICENTER><MEAN_ANOMALY>39.0041</MEAN_ANOMALY></meanElements><tleParameters><EPHEMERIS_TYPE>0</EPHEMERIS_TYPE><CLASSIFICATION_TYPE>U</CLASSIFICATION_TYPE><NORAD_CAT_ID>25416</NORAD_CAT_ID><ELEMENT_SET_NO>999</ELEMENT_SET_NO><REV_AT_EPOCH>38711</REV_AT_EPOCH><BSTAR>.90882E-3</BSTAR><MEAN_MOTION_DOT>.2565E-4</MEAN_MOTION_DOT><MEAN_MOTION_DDOT>0</MEAN_MOTION_DDOT></tleParameters></data></segment></body></omm>
<omm id="CCSDS_OMM_VERS" version="2.0">
<header><CREATION_DATE/><ORIGINATOR/></header><body><segment><metadata><OBJECT_NAME>ORBCOMM FM16</OBJECT_NAME><OBJECT_ID>1998-046E</OBJECT_ID><CENTER_NAME>EARTH</CENTER_NAME><REF_FRAME>TEME</REF_FRAME><TIME_SYSTEM>UTC</TIME_SYSTEM><MEAN_ELEMENT_THEORY>SGP4</MEAN_ELEMENT_THEORY></metadata><data><meanElements><EPOCH>2025-02-17T22:52:33.526848</EPOCH><MEAN_MOTION>14.38284499</MEAN_MOTION><ECCENTRICITY>.0004344</ECCENTRICITY><INCLINATION>44.9946</INCLINATION><RA_OF_ASC_NODE>18.8435</RA_OF_ASC_NODE><ARG_OF_PERICENTER>27.0604</ARG_OF_PERICENTER><MEAN_ANOMALY>333.0470</MEAN_ANOMALY></meanElements><tleParameters><EPHEMERIS_TYPE>0</EPHEMERIS_TYPE><CLASSIFICATION_TYPE>U</CLASSIFICATION_TYPE><NORAD_CAT_ID>25417</NORAD_CAT_ID><ELEMENT_SET_NO>999</ELEMENT_SET_NO><REV_AT_EPOCH>38708</REV_AT_EPOCH><BSTAR>.12726E-2</BSTAR><MEAN_MOTION_DOT>.3767E-4</MEAN_MOTION_DOT><MEAN_MOTION_DDOT>0</MEAN_MOTION_DDOT></tleParameters></data></segment></body></omm>

</ndm>
